{
  "type": "FeatureCollection",
  "features": [
    {
      "type": "Feature",
      "properties": {
        "norad_id": 45807,
        "name": "BEIDOU-3 G3 (C61)",
        "group": "gnss",
        "lat": -0.6866071738672839,
        "lon": -94.00678603738902,
        "alt_km": 35796.83228457335,
        "timestamp": "2025-12-27T03:58:44.399023+00:00",
        "meta_object_name": "BEIDOU-3 G3 (C61)",
        "meta_object_id": "2020-040A",
        "meta_epoch": "2025-12-26T15:16:11.754624",
        "meta_mean_motion": 1.00266662,
        "meta_eccentricity": 0.00065884,
        "meta_inclination": 2.0227,
        "meta_ra_of_asc_node": 66.6979,
        "meta_arg_of_pericenter": 308.5345,
        "meta_mean_anomaly": 59.7005,
        "meta_ephemeris_type": 0,
        "meta_classification_type": "U",
        "meta_norad_cat_id": 45807,
        "meta_element_set_no": 999,
        "meta_rev_at_epoch": 2034,
        "meta_bstar": 0,
        "meta_mean_motion_dot": -3.32e-06,
        "meta_mean_motion_ddot": 0,
        "tle_line1": "1 45807U 20040A   25360.63624716 -.00000332  00000+0  00000+0 0  9998",
        "tle_line2": "2 45807   2.0227  66.6979 0006588 308.5345  59.7005  1.00266662 20341"
      },
      "geometry": {
        "type": "Point",
        "coordinates": [
          -94.00678603738902,
          -0.6866071738672839
        ]
      }
    },
    {
      "type": "Feature",
      "properties": {
        "norad_id": 45854,
        "name": "GPS BIII-3  (PRN 23)",
        "group": "gnss",
        "lat": -31.51869608415445,
        "lon": 11.739853171183002,
        "alt_km": 20259.55964981407,
        "timestamp": "2025-12-27T03:58:44.399035+00:00",
        "meta_object_name": "GPS BIII-3  (PRN 23)",
        "meta_object_id": "2020-041A",
        "meta_epoch": "2025-12-26T05:40:05.983104",
        "meta_mean_motion": 2.00561528,
        "meta_eccentricity": 0.0060682,
        "meta_inclination": 56.556,
        "meta_ra_of_asc_node": 35.6606,
        "meta_arg_of_pericenter": 203.8008,
        "meta_mean_anomaly": 165.623,
        "meta_ephemeris_type": 0,
        "meta_classification_type": "U",
        "meta_norad_cat_id": 45854,
        "meta_element_set_no": 999,
        "meta_rev_at_epoch": 4057,
        "meta_bstar": 0,
        "meta_mean_motion_dot": -5e-07,
        "meta_mean_motion_ddot": 0,
        "tle_line1": "1 45854U 20041A   25360.23618036 -.00000050  00000+0  00000+0 0  9992",
        "tle_line2": "2 45854  56.5560  35.6606 0060682 203.8008 165.6230  2.00561528 40572"
      },
      "geometry": {
        "type": "Point",
        "coordinates": [
          11.739853171183002,
          -31.51869608415445
        ]
      }
    },
    {
      "type": "Feature",
      "properties": {
        "norad_id": 46114,
        "name": "GALAXY 30 (WAAS/PRN 135)",
        "group": "gnss",
        "lat": 0.013751921693385004,
        "lon": 30.599778236299557,
        "alt_km": 35790.44339944109,
        "timestamp": "2025-12-27T03:58:44.399047+00:00",
        "meta_object_name": "GALAXY 30 (WAAS/PRN 135)",
        "meta_object_id": "2020-056C",
        "meta_epoch": "2025-12-26T13:07:40.743840",
        "meta_mean_motion": 1.0027099,
        "meta_eccentricity": 0.0002392,
        "meta_inclination": 0.0083,
        "meta_ra_of_asc_node": 313.2552,
        "meta_arg_of_pericenter": 322.9444,
        "meta_mean_anomaly": 251.0088,
        "meta_ephemeris_type": 0,
        "meta_classification_type": "U",
        "meta_norad_cat_id": 46114,
        "meta_element_set_no": 999,
        "meta_rev_at_epoch": 1956,
        "meta_bstar": 0,
        "meta_mean_motion_dot": 5.9e-07,
        "meta_mean_motion_ddot": 0,
        "tle_line1": "1 46114U 20056C   25360.54699935  .00000059  00000+0  00000+0 0  9997",
        "tle_line2": "2 46114   0.0083 313.2552 0002392 322.9444 251.0088  1.00270990 19567"
      },
      "geometry": {
        "type": "Point",
        "coordinates": [
          30.599778236299557,
          0.013751921693385004
        ]
      }
    },
    {
      "type": "Feature",
      "properties": {
        "norad_id": 46805,
        "name": "COSMOS 2547 (705K)",
        "group": "gnss",
        "lat": -19.628620089122027,
        "lon": -171.5430899299926,
        "alt_km": 19138.4881774948,
        "timestamp": "2025-12-27T03:58:44.399058+00:00",
        "meta_object_name": "COSMOS 2547 (705K)",
        "meta_object_id": "2020-075A",
        "meta_epoch": "2025-12-26T06:08:16.586592",
        "meta_mean_motion": 2.13100169,
        "meta_eccentricity": 0.0006102,
        "meta_inclination": 64.597,
        "meta_ra_of_asc_node": 198.2449,
        "meta_arg_of_pericenter": 227.5129,
        "meta_mean_anomaly": 132.4903,
        "meta_ephemeris_type": 0,
        "meta_classification_type": "U",
        "meta_norad_cat_id": 46805,
        "meta_element_set_no": 999,
        "meta_rev_at_epoch": 4022,
        "meta_bstar": 0,
        "meta_mean_motion_dot": 1.12e-06,
        "meta_mean_motion_ddot": 0,
        "tle_line1": "1 46805U 20075A   25360.25574753  .00000112  00000+0  00000+0 0  9993",
        "tle_line2": "2 46805  64.5970 198.2449 0006102 227.5129 132.4903  2.13100169 40223"
      },
      "geometry": {
        "type": "Point",
        "coordinates": [
          -171.5430899299926,
          -19.628620089122027
        ]
      }
    },
    {
      "type": "Feature",
      "properties": {
        "norad_id": 46826,
        "name": "GPS BIII-4  (PRN 14)",
        "group": "gnss",
        "lat": -48.27057025053863,
        "lon": 163.213238668179,
        "alt_km": 20183.18336554187,
        "timestamp": "2025-12-27T03:58:44.399068+00:00",
        "meta_object_name": "GPS BIII-4  (PRN 14)",
        "meta_object_id": "2020-078A",
        "meta_epoch": "2025-12-16T01:06:13.902336",
        "meta_mean_motion": 2.00566891,
        "meta_eccentricity": 0.0064754,
        "meta_inclination": 54.0144,
        "meta_ra_of_asc_node": 218.2068,
        "meta_arg_of_pericenter": 203.3802,
        "meta_mean_anomaly": 339.3962,
        "meta_ephemeris_type": 0,
        "meta_classification_type": "U",
        "meta_norad_cat_id": 46826,
        "meta_element_set_no": 999,
        "meta_rev_at_epoch": 3783,
        "meta_bstar": 0,
        "meta_mean_motion_dot": 6.7e-07,
        "meta_mean_motion_ddot": 0,
        "tle_line1": "1 46826U 20078A   25350.04599424  .00000067  00000+0  00000+0 0  9996",
        "tle_line2": "2 46826  54.0144 218.2068 0064754 203.3802 339.3962  2.00566891 37830"
      },
      "geometry": {
        "type": "Point",
        "coordinates": [
          163.213238668179,
          -48.27057025053863
        ]
      }
    },
    {
      "type": "Feature",
      "properties": {
        "norad_id": 48859,
        "name": "GPS BIII-5  (PRN 11)",
        "group": "gnss",
        "lat": 47.40891082040176,
        "lon": 110.34877687062597,
        "alt_km": 20207.642604279627,
        "timestamp": "2025-12-27T03:58:44.399079+00:00",
        "meta_object_name": "GPS BIII-5  (PRN 11)",
        "meta_object_id": "2021-054A",
        "meta_epoch": "2025-12-08T04:14:32.423424",
        "meta_mean_motion": 2.00553627,
        "meta_eccentricity": 0.0024678,
        "meta_inclination": 55.2581,
        "meta_ra_of_asc_node": 340.1367,
        "meta_arg_of_pericenter": 233.3993,
        "meta_mean_anomaly": 212.8594,
        "meta_ephemeris_type": 0,
        "meta_classification_type": "U",
        "meta_norad_cat_id": 48859,
        "meta_element_set_no": 999,
        "meta_rev_at_epoch": 3292,
        "meta_bstar": 0,
        "meta_mean_motion_dot": -8.6e-07,
        "meta_mean_motion_ddot": 0,
        "tle_line1": "1 48859U 21054A   25342.17676416 -.00000086  00000+0  00000+0 0  9993",
        "tle_line2": "2 48859  55.2581 340.1367 0024678 233.3993 212.8594  2.00553627 32922"
      },
      "geometry": {
        "type": "Point",
        "coordinates": [
          110.34877687062597,
          47.40891082040176
        ]
      }
    },
    {
      "type": "Feature",
      "properties": {
        "norad_id": 49336,
        "name": "QZS-1R (QZSS/PRN 196)",
        "group": "gnss",
        "lat": -11.441497096904156,
        "lon": -82.34319308576562,
        "alt_km": 34610.95630349525,
        "timestamp": "2025-12-27T03:58:44.399089+00:00",
        "meta_object_name": "QZS-1R (QZSS/PRN 196)",
        "meta_object_id": "2021-096A",
        "meta_epoch": "2025-12-24T14:02:51.747360",
        "meta_mean_motion": 1.00253394,
        "meta_eccentricity": 0.0757125,
        "meta_inclination": 37.101,
        "meta_ra_of_asc_node": 82.185,
        "meta_arg_of_pericenter": 271.5387,
        "meta_mean_anomaly": 84.3648,
        "meta_ephemeris_type": 0,
        "meta_classification_type": "U",
        "meta_norad_cat_id": 49336,
        "meta_element_set_no": 999,
        "meta_rev_at_epoch": 1526,
        "meta_bstar": 0,
        "meta_mean_motion_dot": -2.38e-06,
        "meta_mean_motion_ddot": 0,
        "tle_line1": "1 49336U 21096A   25358.58532115 -.00000238  00000+0  00000+0 0  9998",
        "tle_line2": "2 49336  37.1010  82.1850 0757125 271.5387  84.3648  1.00253394 15267"
      },
      "geometry": {
        "type": "Point",
        "coordinates": [
          -82.34319308576562,
          -11.441497096904156
        ]
      }
    }
  ]
}